TISAT 1                 
1 36799U 10035E   26068.75703561  .00024554  00000+0  91005-3 0  9996
2 36799  98.0645   6.8512 0001343 159.3030 200.8262 15.27628633852505
STARLINK-33548          
1 62280U 24237P   26068.40327894  .00043521  00000+0  15812-2 0  9998
2 62280  42.9960 207.1165 0000491 235.2252 124.8554 15.27590947 71272
